STARLINK-35496          
1 66114U 25237A   25324.83336806 -.00004353  00000+0 -98857-4 0  9997
2 66114  53.1588 190.6993 0000932 149.5484 344.2493 15.39632834  5958
STARLINK-35428          
1 66115U 25237B   25324.00003472  .00046869  00000+0  11757-2 0  9995
2 66115  53.1598 194.7792 0001287  89.7336  25.3832 15.39589967  5825
STARLINK-35573          
1 66116U 25237C   25324.79996634  .00043899  00000+0  11010-2 0  9995
2 66116  53.1579 190.7538 0001488  96.1158 264.0016 15.39622937  5861
STARLINK-35572          
1 66117U 25237D   25324.83336806 -.00009020  00000+0 -21577-3 0  9990
2 66117  53.1594 190.8010 0001194  92.1694 350.1582 15.39620399  5955
STARLINK-35468          
1 66118U 25237E   25324.63308627  .00046657  00000+0  11680-2 0  9997
2 66118  53.1575 191.8452 0002121  94.1461 265.9787 15.39653575  5830
STARLINK-35547          
1 66119U 25237F   25324.83336806 -.00001649  00000+0 -31268-4 0  9990
2 66119  53.1586 190.6464 0001018 103.9129  55.6661 15.39618369  5957
STARLINK-35553          
1 66120U 25237G   25324.83336806 -.00002525  00000+0 -53139-4 0  9997
2 66120  53.1592 190.7497 0001598  97.1213  10.8329 15.39630914  5958
STARLINK-35631          
1 66121U 25237H   25324.83336806  .00011100  00000+0  28740-3 0  9994
2 66121  53.1589 190.5427 0001125  77.4631 133.6695 15.39586048  5955
STARLINK-35653          
1 66122U 25237J   25324.79165863  .00039154  00000+0  85891-3 0  9992
2 66122  53.1585 190.6983 0003875 327.2017  32.8748 15.43701379  5868
STARLINK-35628          
1 66123U 25237K   25324.65972824  .00075874  00000+0  13553-2 0  9995
2 66123  53.1612 191.2987 0002190  89.2428 270.8832 15.49385672  5847
STARLINK-35645          
1 66124U 25237L   25324.78901560  .00053367  00000+0  10255-2 0  9998
2 66124  53.1611 190.6845 0003946 171.6332 188.4743 15.47441534  5868
STARLINK-35649          
1 66125U 25237M   25324.33650648  .00069974  00000+0  12522-2 0  9998
2 66125  53.1591 192.8358 0001581  99.2867 260.8321 15.49370913  5793
