CCSDS_OMM_VERS = 2.0
CREATION_DATE  = 
ORIGINATOR     = 

OBJECT_NAME    = STARLINK-35496
OBJECT_ID      = 2025-237A
CENTER_NAME    = EARTH
REF_FRAME      = TEME
TIME_SYSTEM    = UTC
MEAN_ELEMENT_THEORY = SGP/SGP4

EPOCH          = 2025-11-20T20:00:03.000384
MEAN_MOTION    = 15.39632834
ECCENTRICITY   = .0000932
INCLINATION    = 53.1588
RA_OF_ASC_NODE = 190.6993
ARG_OF_PERICENTER = 149.5484
MEAN_ANOMALY   = 344.2493

EPHEMERIS_TYPE = 0
CLASSIFICATION_TYPE = U
NORAD_CAT_ID   = 66114
ELEMENT_SET_NO = 999
REV_AT_EPOCH   = 595
BSTAR          = -.98857E-4
MEAN_MOTION_DOT = -.4353E-4
MEAN_MOTION_DDOT = 0

CCSDS_OMM_VERS = 2.0
CREATION_DATE  = 
ORIGINATOR     = 

OBJECT_NAME    = STARLINK-35428
OBJECT_ID      = 2025-237B
CENTER_NAME    = EARTH
REF_FRAME      = TEME
TIME_SYSTEM    = UTC
MEAN_ELEMENT_THEORY = SGP/SGP4

EPOCH          = 2025-11-20T00:00:02.999808
MEAN_MOTION    = 15.39589967
ECCENTRICITY   = .00012873
INCLINATION    = 53.1598
RA_OF_ASC_NODE = 194.7792
ARG_OF_PERICENTER = 89.7336
MEAN_ANOMALY   = 25.3832

EPHEMERIS_TYPE = 0
CLASSIFICATION_TYPE = U
NORAD_CAT_ID   = 66115
ELEMENT_SET_NO = 999
REV_AT_EPOCH   = 582
BSTAR          = .11756744E-2
MEAN_MOTION_DOT = .46869E-3
MEAN_MOTION_DDOT = 0

CCSDS_OMM_VERS = 2.0
CREATION_DATE  = 
ORIGINATOR     = 

OBJECT_NAME    = STARLINK-35573
OBJECT_ID      = 2025-237C
CENTER_NAME    = EARTH
REF_FRAME      = TEME
TIME_SYSTEM    = UTC
MEAN_ELEMENT_THEORY = SGP/SGP4

EPOCH          = 2025-11-20T19:11:57.091776
MEAN_MOTION    = 15.39622937
ECCENTRICITY   = .0001488
INCLINATION    = 53.1579
RA_OF_ASC_NODE = 190.7538
ARG_OF_PERICENTER = 96.1158
MEAN_ANOMALY   = 264.0016

EPHEMERIS_TYPE = 0
CLASSIFICATION_TYPE = U
NORAD_CAT_ID   = 66116
ELEMENT_SET_NO = 999
REV_AT_EPOCH   = 586
BSTAR          = .1101E-2
MEAN_MOTION_DOT = .43899E-3
MEAN_MOTION_DDOT = 0

CCSDS_OMM_VERS = 2.0
CREATION_DATE  = 
ORIGINATOR     = 

OBJECT_NAME    = STARLINK-35572
OBJECT_ID      = 2025-237D
CENTER_NAME    = EARTH
REF_FRAME      = TEME
TIME_SYSTEM    = UTC
MEAN_ELEMENT_THEORY = SGP/SGP4

EPOCH          = 2025-11-20T20:00:03.000384
MEAN_MOTION    = 15.39620399
ECCENTRICITY   = .0001194
INCLINATION    = 53.1594
RA_OF_ASC_NODE = 190.8010
ARG_OF_PERICENTER = 92.1694
MEAN_ANOMALY   = 350.1582

EPHEMERIS_TYPE = 0
CLASSIFICATION_TYPE = U
NORAD_CAT_ID   = 66117
ELEMENT_SET_NO = 999
REV_AT_EPOCH   = 595
BSTAR          = -.21577E-3
MEAN_MOTION_DOT = -.902E-4
MEAN_MOTION_DDOT = 0

CCSDS_OMM_VERS = 2.0
CREATION_DATE  = 
ORIGINATOR     = 

OBJECT_NAME    = STARLINK-35468
OBJECT_ID      = 2025-237E
CENTER_NAME    = EARTH
REF_FRAME      = TEME
TIME_SYSTEM    = UTC
MEAN_ELEMENT_THEORY = SGP/SGP4

EPOCH          = 2025-11-20T15:11:38.653728
MEAN_MOTION    = 15.39653575
ECCENTRICITY   = .0002121
INCLINATION    = 53.1575
RA_OF_ASC_NODE = 191.8452
ARG_OF_PERICENTER = 94.1461
MEAN_ANOMALY   = 265.9787

EPHEMERIS_TYPE = 0
CLASSIFICATION_TYPE = U
NORAD_CAT_ID   = 66118
ELEMENT_SET_NO = 999
REV_AT_EPOCH   = 583
BSTAR          = .1168E-2
MEAN_MOTION_DOT = .46657E-3
MEAN_MOTION_DDOT = 0

CCSDS_OMM_VERS = 2.0
CREATION_DATE  = 
ORIGINATOR     = 

OBJECT_NAME    = STARLINK-35547
OBJECT_ID      = 2025-237F
CENTER_NAME    = EARTH
REF_FRAME      = TEME
TIME_SYSTEM    = UTC
MEAN_ELEMENT_THEORY = SGP/SGP4

EPOCH          = 2025-11-20T20:00:03.000384
MEAN_MOTION    = 15.39618369
ECCENTRICITY   = .0001018
INCLINATION    = 53.1586
RA_OF_ASC_NODE = 190.6464
ARG_OF_PERICENTER = 103.9129
MEAN_ANOMALY   = 55.6661

EPHEMERIS_TYPE = 0
CLASSIFICATION_TYPE = U
NORAD_CAT_ID   = 66119
ELEMENT_SET_NO = 999
REV_AT_EPOCH   = 595
BSTAR          = -.31268E-4
MEAN_MOTION_DOT = -.1649E-4
MEAN_MOTION_DDOT = 0

CCSDS_OMM_VERS = 2.0
CREATION_DATE  = 
ORIGINATOR     = 

OBJECT_NAME    = STARLINK-35553
OBJECT_ID      = 2025-237G
CENTER_NAME    = EARTH
REF_FRAME      = TEME
TIME_SYSTEM    = UTC
MEAN_ELEMENT_THEORY = SGP/SGP4

EPOCH          = 2025-11-20T20:00:03.000384
MEAN_MOTION    = 15.39630914
ECCENTRICITY   = .0001598
INCLINATION    = 53.1592
RA_OF_ASC_NODE = 190.7497
ARG_OF_PERICENTER = 97.1213
MEAN_ANOMALY   = 10.8329

EPHEMERIS_TYPE = 0
CLASSIFICATION_TYPE = U
NORAD_CAT_ID   = 66120
ELEMENT_SET_NO = 999
REV_AT_EPOCH   = 595
BSTAR          = -.53139E-4
MEAN_MOTION_DOT = -.2525E-4
MEAN_MOTION_DDOT = 0

CCSDS_OMM_VERS = 2.0
CREATION_DATE  = 
ORIGINATOR     = 

OBJECT_NAME    = STARLINK-35631
OBJECT_ID      = 2025-237H
CENTER_NAME    = EARTH
REF_FRAME      = TEME
TIME_SYSTEM    = UTC
MEAN_ELEMENT_THEORY = SGP/SGP4

EPOCH          = 2025-11-20T20:00:03.000384
MEAN_MOTION    = 15.39586048
ECCENTRICITY   = .0001125
INCLINATION    = 53.1589
RA_OF_ASC_NODE = 190.5427
ARG_OF_PERICENTER = 77.4631
MEAN_ANOMALY   = 133.6695

EPHEMERIS_TYPE = 0
CLASSIFICATION_TYPE = U
NORAD_CAT_ID   = 66121
ELEMENT_SET_NO = 999
REV_AT_EPOCH   = 595
BSTAR          = .2874E-3
MEAN_MOTION_DOT = .111E-3
MEAN_MOTION_DDOT = 0

CCSDS_OMM_VERS = 2.0
CREATION_DATE  = 
ORIGINATOR     = 

OBJECT_NAME    = STARLINK-35653
OBJECT_ID      = 2025-237J
CENTER_NAME    = EARTH
REF_FRAME      = TEME
TIME_SYSTEM    = UTC
MEAN_ELEMENT_THEORY = SGP/SGP4

EPOCH          = 2025-11-20T18:59:59.305632
MEAN_MOTION    = 15.43701379
ECCENTRICITY   = .0003875
INCLINATION    = 53.1585
RA_OF_ASC_NODE = 190.6983
ARG_OF_PERICENTER = 327.2017
MEAN_ANOMALY   = 32.8748

EPHEMERIS_TYPE = 0
CLASSIFICATION_TYPE = U
NORAD_CAT_ID   = 66122
ELEMENT_SET_NO = 999
REV_AT_EPOCH   = 586
BSTAR          = .85891E-3
MEAN_MOTION_DOT = .39154E-3
MEAN_MOTION_DDOT = 0

CCSDS_OMM_VERS = 2.0
CREATION_DATE  = 
ORIGINATOR     = 

OBJECT_NAME    = STARLINK-35628
OBJECT_ID      = 2025-237K
CENTER_NAME    = EARTH
REF_FRAME      = TEME
TIME_SYSTEM    = UTC
MEAN_ELEMENT_THEORY = SGP/SGP4

EPOCH          = 2025-11-20T15:50:00.519936
MEAN_MOTION    = 15.49385672
ECCENTRICITY   = .000219
INCLINATION    = 53.1612
RA_OF_ASC_NODE = 191.2987
ARG_OF_PERICENTER = 89.2428
MEAN_ANOMALY   = 270.8832

EPHEMERIS_TYPE = 0
CLASSIFICATION_TYPE = U
NORAD_CAT_ID   = 66123
ELEMENT_SET_NO = 999
REV_AT_EPOCH   = 584
BSTAR          = .13553E-2
MEAN_MOTION_DOT = .75874E-3
MEAN_MOTION_DDOT = 0

CCSDS_OMM_VERS = 2.0
CREATION_DATE  = 
ORIGINATOR     = 

OBJECT_NAME    = STARLINK-35645
OBJECT_ID      = 2025-237L
CENTER_NAME    = EARTH
REF_FRAME      = TEME
TIME_SYSTEM    = UTC
MEAN_ELEMENT_THEORY = SGP/SGP4

EPOCH          = 2025-11-20T18:56:10.947840
MEAN_MOTION    = 15.47441534
ECCENTRICITY   = .0003946
INCLINATION    = 53.1611
RA_OF_ASC_NODE = 190.6845
ARG_OF_PERICENTER = 171.6332
MEAN_ANOMALY   = 188.4743

EPHEMERIS_TYPE = 0
CLASSIFICATION_TYPE = U
NORAD_CAT_ID   = 66124
ELEMENT_SET_NO = 999
REV_AT_EPOCH   = 586
BSTAR          = .10255E-2
MEAN_MOTION_DOT = .53367E-3
MEAN_MOTION_DDOT = 0

CCSDS_OMM_VERS = 2.0
CREATION_DATE  = 
ORIGINATOR     = 

OBJECT_NAME    = STARLINK-35649
OBJECT_ID      = 2025-237M
CENTER_NAME    = EARTH
REF_FRAME      = TEME
TIME_SYSTEM    = UTC
MEAN_ELEMENT_THEORY = SGP/SGP4

EPOCH          = 2025-11-20T08:04:34.159872
MEAN_MOTION    = 15.49370913
ECCENTRICITY   = .0001581
INCLINATION    = 53.1591
RA_OF_ASC_NODE = 192.8358
ARG_OF_PERICENTER = 99.2867
MEAN_ANOMALY   = 260.8321

EPHEMERIS_TYPE = 0
CLASSIFICATION_TYPE = U
NORAD_CAT_ID   = 66125
ELEMENT_SET_NO = 999
REV_AT_EPOCH   = 579
BSTAR          = .12522E-2
MEAN_MOTION_DOT = .69974E-3
MEAN_MOTION_DDOT = 0

